[{"OBJECT_NAME":"ONEWEB-0167","OBJECT_ID":"2021-025Y","EPOCH":"2026-01-03T23:04:23.314944","MEAN_MOTION":13.13469589,"ECCENTRICITY":0.000104,"INCLINATION":87.898,"RA_OF_ASC_NODE":352.8733,"ARG_OF_PERICENTER":68.1855,"MEAN_ANOMALY":291.9384,"EPHEMERIS_TYPE":0,"CLASSIFICATION_TYPE":"U","NORAD_CAT_ID":48064,"ELEMENT_SET_NO":999,"REV_AT_EPOCH":23201,"BSTAR":0.00048408,"MEAN_MOTION_DOT":1.9e-6,"MEAN_MOTION_DDOT":0},{"OBJECT_NAME":"ONEWEB-0166","OBJECT_ID":"2021-025Z","EPOCH":"2026-01-03T23:37:16.565664","MEAN_MOTION":13.13469212,"ECCENTRICITY":0.0001759,"INCLINATION":87.8988,"RA_OF_ASC_NODE":352.8266,"ARG_OF_PERICENTER":92.1457,"MEAN_ANOMALY":267.9873,"EPHEMERIS_TYPE":0,"CLASSIFICATION_TYPE":"U","NORAD_CAT_ID":48065,"ELEMENT_SET_NO":999,"REV_AT_EPOCH":23209,"BSTAR":-0.00050621,"MEAN_MOTION_DOT":-1.72e-6,"MEAN_MOTION_DDOT":0},{"OBJECT_NAME":"ONEWEB-0151","OBJECT_ID":"2021-025AA","EPOCH":"2026-01-03T23:39:43.263360","MEAN_MOTION":13.13468525,"ECCENTRICITY":0.0001618,"INCLINATION":87.899,"RA_OF_ASC_NODE":352.8527,"ARG_OF_PERICENTER":82.5516,"MEAN_ANOMALY":277.5796,"EPHEMERIS_TYPE":0,"CLASSIFICATION_TYPE":"U","NORAD_CAT_ID":48066,"ELEMENT_SET_NO":999,"REV_AT_EPOCH":23203,"BSTAR":-0.00076608,"MEAN_MOTION_DOT":-2.67e-6,"MEAN_MOTION_DDOT":0},{"OBJECT_NAME":"ONEWEB-0170","OBJECT_ID":"2021-025AB","EPOCH":"2026-01-04T05:20:59.315136","MEAN_MOTION":13.13468563,"ECCENTRICITY":0.00018042,"INCLINATION":87.8986,"RA_OF_ASC_NODE":352.8095,"ARG_OF_PERICENTER":70.3699,"MEAN_ANOMALY":289.7625,"EPHEMERIS_TYPE":0,"CLASSIFICATION_TYPE":"U","NORAD_CAT_ID":48067,"ELEMENT_SET_NO":999,"REV_AT_EPOCH":23202,"BSTAR":-0.0010891703,"MEAN_MOTION_DOT":-3.85e-6,"MEAN_MOTION_DDOT":0},{"OBJECT_NAME":"ONEWEB-0168","OBJECT_ID":"2021-025AC","EPOCH":"2026-01-03T23:29:57.983712","MEAN_MOTION":13.13468452,"ECCENTRICITY":0.0001561,"INCLINATION":87.8991,"RA_OF_ASC_NODE":352.8452,"ARG_OF_PERICENTER":88.8167,"MEAN_ANOMALY":271.314,"EPHEMERIS_TYPE":0,"CLASSIFICATION_TYPE":"U","NORAD_CAT_ID":48068,"ELEMENT_SET_NO":999,"REV_AT_EPOCH":23200,"BSTAR":-0.00065861,"MEAN_MOTION_DOT":-2.28e-6,"MEAN_MOTION_DDOT":0},{"OBJECT_NAME":"ONEWEB-0173","OBJECT_ID":"2021-025AD","EPOCH":"2026-01-03T23:17:46.763232","MEAN_MOTION":13.13468512,"ECCENTRICITY":0.00013,"INCLINATION":87.8992,"RA_OF_ASC_NODE":352.8541,"ARG_OF_PERICENTER":93.3466,"MEAN_ANOMALY":266.7812,"EPHEMERIS_TYPE":0,"CLASSIFICATION_TYPE":"U","NORAD_CAT_ID":48069,"ELEMENT_SET_NO":999,"REV_AT_EPOCH":23224,"BSTAR":3.6027e-5,"MEAN_MOTION_DOT":2.6e-7,"MEAN_MOTION_DDOT":0},{"OBJECT_NAME":"ONEWEB-0171","OBJECT_ID":"2021-025AE","EPOCH":"2026-01-04T05:40:29.665344","MEAN_MOTION":13.13470111,"ECCENTRICITY":0.00016073,"INCLINATION":87.898,"RA_OF_ASC_NODE":352.8203,"ARG_OF_PERICENTER":82.5545,"MEAN_ANOMALY":277.5767,"EPHEMERIS_TYPE":0,"CLASSIFICATION_TYPE":"U","NORAD_CAT_ID":48070,"ELEMENT_SET_NO":999,"REV_AT_EPOCH":23209,"BSTAR":-0.00017743298,"MEAN_MOTION_DOT":-5.2e-7,"MEAN_MOTION_DDOT":0},{"OBJECT_NAME":"ONEWEB-0172","OBJECT_ID":"2021-025AF","EPOCH":"2026-01-03T23:42:08.924256","MEAN_MOTION":13.1346912,"ECCENTRICITY":0.00015621,"INCLINATION":87.8988,"RA_OF_ASC_NODE":352.855,"ARG_OF_PERICENTER":83.9414,"MEAN_ANOMALY":276.1893,"EPHEMERIS_TYPE":0,"CLASSIFICATION_TYPE":"U","NORAD_CAT_ID":48071,"ELEMENT_SET_NO":999,"REV_AT_EPOCH":23295,"BSTAR":-0.00078460139,"MEAN_MOTION_DOT":-2.74e-6,"MEAN_MOTION_DDOT":0},{"OBJECT_NAME":"ONEWEB-0174","OBJECT_ID":"2021-025AG","EPOCH":"2026-01-03T23:15:20.650464","MEAN_MOTION":13.13468615,"ECCENTRICITY":0.0001686,"INCLINATION":87.8981,"RA_OF_ASC_NODE":352.8608,"ARG_OF_PERICENTER":92.2861,"MEAN_ANOMALY":267.8461,"EPHEMERIS_TYPE":0,"CLASSIFICATION_TYPE":"U","NORAD_CAT_ID":48072,"ELEMENT_SET_NO":999,"REV_AT_EPOCH":23227,"BSTAR":0.00017706,"MEAN_MOTION_DOT":7.7e-7,"MEAN_MOTION_DDOT":0},{"OBJECT_NAME":"ONEWEB-0175","OBJECT_ID":"2021-025AH","EPOCH":"2026-01-04T05:28:18.204672","MEAN_MOTION":13.13468622,"ECCENTRICITY":0.00015852,"INCLINATION":87.8989,"RA_OF_ASC_NODE":352.7801,"ARG_OF_PERICENTER":74.8531,"MEAN_ANOMALY":285.2773,"EPHEMERIS_TYPE":0,"CLASSIFICATION_TYPE":"U","NORAD_CAT_ID":48073,"ELEMENT_SET_NO":999,"REV_AT_EPOCH":23196,"BSTAR":-0.00077738712,"MEAN_MOTION_DOT":-2.71e-6,"MEAN_MOTION_DDOT":0},{"OBJECT_NAME":"ONEWEB-0177","OBJECT_ID":"2021-025AJ","EPOCH":"2026-01-04T05:45:22.542336","MEAN_MOTION":13.13469522,"ECCENTRICITY":0.00015856,"INCLINATION":87.8992,"RA_OF_ASC_NODE":352.7977,"ARG_OF_PERICENTER":92.3876,"MEAN_ANOMALY":267.7435,"EPHEMERIS_TYPE":0,"CLASSIFICATION_TYPE":"U","NORAD_CAT_ID":48074,"ELEMENT_SET_NO":999,"REV_AT_EPOCH":23215,"BSTAR":-2.1569733e-5,"MEAN_MOTION_DOT":5.0e-8,"MEAN_MOTION_DDOT":0},{"OBJECT_NAME":"ONEWEB-0178","OBJECT_ID":"2021-025AK","EPOCH":"2026-01-04T06:12:23.567904","MEAN_MOTION":13.13468405,"ECCENTRICITY":0.00014139,"INCLINATION":87.8979,"RA_OF_ASC_NODE":352.8326,"ARG_OF_PERICENTER":81.3989,"MEAN_ANOMALY":278.73,"EPHEMERIS_TYPE":0,"CLASSIFICATION_TYPE":"U","NORAD_CAT_ID":48075,"ELEMENT_SET_NO":999,"REV_AT_EPOCH":23220,"BSTAR":0.00097138598,"MEAN_MOTION_DOT":3.67e-6,"MEAN_MOTION_DDOT":0},{"OBJECT_NAME":"ONEWEB-0108","OBJECT_ID":"2021-025AL","EPOCH":"2026-01-03T23:44:35.729088","MEAN_MOTION":13.13469795,"ECCENTRICITY":0.00019349,"INCLINATION":87.8989,"RA_OF_ASC_NODE":352.8371,"ARG_OF_PERICENTER":87.8772,"MEAN_ANOMALY":272.2579,"EPHEMERIS_TYPE":0,"CLASSIFICATION_TYPE":"U","NORAD_CAT_ID":48076,"ELEMENT_SET_NO":999,"REV_AT_EPOCH":23209,"BSTAR":-0.00080147806,"MEAN_MOTION_DOT":-2.8e-6,"MEAN_MOTION_DDOT":0},{"OBJECT_NAME":"ONEWEB-0169","OBJECT_ID":"2021-025AM","EPOCH":"2026-01-04T05:59:59.530848","MEAN_MOTION":13.13468381,"ECCENTRICITY":0.00019109,"INCLINATION":87.8987,"RA_OF_ASC_NODE":352.8049,"ARG_OF_PERICENTER":87.9743,"MEAN_ANOMALY":272.1605,"EPHEMERIS_TYPE":0,"CLASSIFICATION_TYPE":"U","NORAD_CAT_ID":48077,"ELEMENT_SET_NO":999,"REV_AT_EPOCH":23078,"BSTAR":0.00079464739,"MEAN_MOTION_DOT":3.03e-6,"MEAN_MOTION_DDOT":0},{"OBJECT_NAME":"ONEWEB-0176","OBJECT_ID":"2021-031A","EPOCH":"2026-01-04T07:08:15.925056","MEAN_MOTION":13.14502537,"ECCENTRICITY":0.00016089,"INCLINATION":87.901,"RA_OF_ASC_NODE":322.3563,"ARG_OF_PERICENTER":78.0829,"MEAN_ANOMALY":282.0481,"EPHEMERIS_TYPE":0,"CLASSIFICATION_TYPE":"U","NORAD_CAT_ID":48210,"ELEMENT_SET_NO":999,"REV_AT_EPOCH":22678,"BSTAR":-0.00029032565,"MEAN_MOTION_DOT":-9.5e-7,"MEAN_MOTION_DDOT":0},{"OBJECT_NAME":"ONEWEB-0184","OBJECT_ID":"2021-031B","EPOCH":"2026-01-04T06:29:26.333088","MEAN_MOTION":13.14502112,"ECCENTRICITY":0.00013705,"INCLINATION":87.9023,"RA_OF_ASC_NODE":322.3447,"ARG_OF_PERICENTER":49.2761,"MEAN_ANOMALY":310.8488,"EPHEMERIS_TYPE":0,"CLASSIFICATION_TYPE":"U","NORAD_CAT_ID":48211,"ELEMENT_SET_NO":999,"REV_AT_EPOCH":22675,"BSTAR":-4.02408e-5,"MEAN_MOTION_DOT":-2.0e-8,"MEAN_MOTION_DDOT":0},{"OBJECT_NAME":"ONEWEB-0179","OBJECT_ID":"2021-031C","EPOCH":"2026-01-04T05:47:11.342400","MEAN_MOTION":13.14504367,"ECCENTRICITY":0.00016663,"INCLINATION":87.9014,"RA_OF_ASC_NODE":322.3577,"ARG_OF_PERICENTER":87.2733,"MEAN_ANOMALY":272.8588,"EPHEMERIS_TYPE":0,"CLASSIFICATION_TYPE":"U","NORAD_CAT_ID":48212,"ELEMENT_SET_NO":999,"REV_AT_EPOCH":22679,"BSTAR":0.00077314613,"MEAN_MOTION_DOT":2.99e-6,"MEAN_MOTION_DDOT":0}]
