ONEWEB-0167             
1 48064U 21025Y   26003.96138096  .00000190  00000+0  48408-3 0  9991
2 48064  87.8980 352.8733 0001040  68.1855 291.9384 13.13469589232016
ONEWEB-0166             
1 48065U 21025Z   26003.98421951 -.00000172  00000+0 -50621-3 0  9991
2 48065  87.8988 352.8266 0001759  92.1457 267.9873 13.13469212232095
ONEWEB-0151             
1 48066U 21025AA  26003.98591740 -.00000267  00000+0 -76608-3 0  9994
2 48066  87.8990 352.8527 0001618  82.5516 277.5796 13.13468525232033
ONEWEB-0170             
1 48067U 21025AB  26004.22290874 -.00000385  00000+0 -10892-2 0  9990
2 48067  87.8986 352.8095 0001804  70.3699 289.7625 13.13468563232020
ONEWEB-0168             
1 48068U 21025AC  26003.97914333 -.00000228  00000+0 -65861-3 0  9998
2 48068  87.8991 352.8452 0001561  88.8167 271.3140 13.13468452232002
ONEWEB-0173             
1 48069U 21025AD  26003.97068013  .00000026  00000+0  36027-4 0  9991
2 48069  87.8992 352.8541 0001300  93.3466 266.7812 13.13468512232244
ONEWEB-0171             
1 48070U 21025AE  26004.23645446 -.00000052  00000+0 -17743-3 0  9998
2 48070  87.8980 352.8203 0001607  82.5545 277.5767 13.13470111232096
ONEWEB-0172             
1 48071U 21025AF  26003.98760329 -.00000274  00000+0 -78460-3 0  9997
2 48071  87.8988 352.8550 0001562  83.9414 276.1893 13.13469120232958
ONEWEB-0174             
1 48072U 21025AG  26003.96898901  .00000077  00000+0  17706-3 0  9999
2 48072  87.8981 352.8608 0001686  92.2861 267.8461 13.13468615232273
ONEWEB-0175             
1 48073U 21025AH  26004.22798848 -.00000271  00000+0 -77739-3 0  9999
2 48073  87.8989 352.7801 0001585  74.8531 285.2773 13.13468622231967
ONEWEB-0177             
1 48074U 21025AJ  26004.23984424  .00000005  00000+0 -21570-4 0  9995
2 48074  87.8992 352.7977 0001585  92.3876 267.7435 13.13469522232155
ONEWEB-0178             
1 48075U 21025AK  26004.25860611  .00000367  00000+0  97139-3 0  9992
2 48075  87.8979 352.8326 0001413  81.3989 278.7300 13.13468405232201
ONEWEB-0108             
1 48076U 21025AL  26003.98930242 -.00000280  00000+0 -80148-3 0  9998
2 48076  87.8989 352.8371 0001934  87.8772 272.2579 13.13469795232099
ONEWEB-0169             
1 48077U 21025AM  26004.24999457  .00000303  00000+0  79465-3 0  9996
2 48077  87.8987 352.8049 0001910  87.9743 272.1605 13.13468381230786
ONEWEB-0176             
1 48210U 21031A   26004.29740654 -.00000095  00000+0 -29033-3 0  9996
2 48210  87.9010 322.3563 0001608  78.0829 282.0481 13.14502537226786
ONEWEB-0184             
1 48211U 21031B   26004.27044367 -.00000002  00000+0 -40241-4 0  9996
2 48211  87.9023 322.3447 0001370  49.2761 310.8488 13.14502112226756
ONEWEB-0179             
1 48212U 21031C   26004.24110350  .00000299  00000+0  77315-3 0  9997
2 48212  87.9014 322.3577 0001666  87.2733 272.8588 13.14504367226796
